OBJECT_NAME,OBJECT_ID,EPOCH,MEAN_MOTION,ECCENTRICITY,INCLINATION,RA_OF_ASC_NODE,ARG_OF_PERICENTER,MEAN_ANOMALY,EPHEMERIS_TYPE,CLASSIFICATION_TYPE,NORAD_CAT_ID,ELEMENT_SET_NO,REV_AT_EPOCH,BSTAR,MEAN_MOTION_DOT,MEAN_MOTION_DDOT
LEMUR-2-ROUNDTRIPPER,2025-009DG,2026-07-07T04:28:56.781120,15.04138808,.0004458,97.7223,270.8397,82.7690,277.4043,0,U,62711,999,8063,.48362E-3,.6648E-4,0
LEMUR-2-MYNAMEISJEFF,2025-009DH,2026-07-07T04:26:42.192384,15.04131043,.0003603,97.7276,271.2311,116.4406,243.7189,0,U,62712,999,8063,.48688E-3,.6692E-4,0
LEMUR-2-LEIA-PHILIP,2025-052AN,2026-07-07T02:49:28.548192,14.97375287,.0004857,97.6816,79.7311,140.0077,220.1504,0,U,63246,999,7165,.17584E-3,.1985E-4,0
LEMUR-2-LIA-MARTIN,2025-052AQ,2026-07-06T15:33:07.566336,14.97976249,.0005203,97.6861,79.7730,111.5295,248.6482,0,U,63248,999,7159,.39684E-3,.4626E-4,0
LEMUR-2-DELOITTE-1,2025-052BB,2026-07-06T16:39:10.933920,14.97742162,.0002286,97.6883,80.1499,65.5794,294.5666,0,U,63259,999,7161,.28529E-3,.3288E-4,0
LEMUR-2-EMERSONROSE,2025-052BD,2026-07-07T04:24:37.805760,14.99240847,.0002748,97.6871,81.2273,73.8140,286.3386,0,U,63261,999,7173,.29729E-3,.3566E-4,0
LEMUR-2-MARACHE-FRAN,2025-052BE,2026-07-07T03:29:13.335936,15.00280659,.0004512,97.6865,81.5468,290.2178,69.8560,0,U,63262,999,7175,.22321E-3,.2737E-4,0
LEMUR-2-THEFALCONER,2025-052BG,2026-07-07T12:35:55.732704,14.97535872,.0000898,97.6846,80.5658,26.3470,333.7797,0,U,63264,999,7173,.25819E-3,.2954E-4,0
LEMUR-2-UNTITLED-SC,2025-061A,2026-07-07T10:49:47.808192,15.13613733,.0018404,97.5648,163.6676,189.4039,170.6850,0,U,63351,999,7065,.12007E-3,.2097E-4,0
LEMUR-2-ESPERANZA,2025-061B,2026-07-07T08:39:52.627392,15.13720454,.0018012,97.5652,163.6759,189.3073,170.7827,0,U,63352,999,7064,.19115E-3,.3389E-4,0
LEMUR-2-KREMPEL-BRO2,2025-061C,2026-07-07T09:10:21.604800,15.14144257,.0019161,97.5702,164.2565,181.6004,178.5169,0,U,63353,999,7066,.12001E-3,.2129E-4,0
LEMUR-2-THERMORAPTOR,2025-061D,2026-07-07T10:18:08.396640,15.14226483,.0018931,97.5706,164.3826,180.3649,179.7572,0,U,63354,999,7067,.14336E-3,.2562E-4,0
LEMUR-2-NEUROSPICY,2025-061E,2026-07-07T11:10:15.847680,15.14346479,.0016679,97.5635,164.0292,183.0672,177.0461,0,U,63355,999,7068,.15088E-3,.2707E-4,0
LEMUR-2-TILLINFINITY,2025-061F,2026-07-07T08:39:33.657408,15.14927906,.0018249,97.5620,164.2297,172.0497,188.1027,0,U,63356,999,7069,.15039E-3,.2745E-4,0
LEMUR-2-KREMPEL-BRO1,2025-061G,2026-07-07T09:40:12.229248,15.14737363,.0018889,97.5621,164.1821,173.2750,186.8739,0,U,63357,999,7069,.16005E-3,.2911E-4,0
LEMUR-2-LANGER2SPACE,2025-061H,2026-07-07T11:59:20.853024,15.14430042,.001663,97.5624,164.0841,181.3139,178.8052,0,U,63358,999,7069,.13256E-3,.2376E-4,0
LEMUR-2-BALTO,2025-052BH,2026-07-07T04:43:04.141344,15.00313404,.0005649,97.6926,81.5775,359.1139,1.0073,0,U,63395,999,7176,.3122E-3,.3856E-4,0
LEMUR-2-KRISH,2025-135AK,2026-07-07T06:28:53.031072,14.96401488,.0001744,97.7760,303.0109,100.7810,259.3608,0,U,64561,999,5692,.37657E-3,.421E-4,0
LEMUR-2-HUBBLE-4,2025-135AP,2026-07-07T05:40:18.962976,14.93668736,.0001964,97.7713,301.9077,185.5472,174.5726,0,U,64565,999,5686,.10797E-3,.1085E-4,0
LEMUR-2-SEJONG-2,2025-135BL,2026-07-07T13:27:44.995680,14.96876328,.0003223,97.7706,303.4461,253.1473,106.9396,0,U,64586,999,5699,.19396E-3,.2166E-4,0
LEMUR-2-HUBBLE-5,2025-135BT,2026-07-07T02:44:13.415424,14.94195154,.0004095,97.7734,302.4471,270.5745,89.5005,0,U,64840,999,5688,.12888E-3,.1323E-4,0
LEMUR-2-KARENDARRELL,2025-135BU,2026-07-06T20:39:06.820704,15.00420938,.0011589,97.7696,304.0402,131.2820,228.9403,0,U,64841,999,5696,.47253E-3,.589E-4,0
LEMUR-2-LUCILLE-ROSE,2025-135BV,2026-07-07T10:25:07.902336,15.00426993,.001391,97.7717,304.6479,213.0258,147.0098,0,U,65403,999,5167,.3739E-3,.465E-4,0
LEMUR-2-AFFIE-WAUWIE,2025-248C,2026-07-05T19:47:57.109056,15.27976863,.0008364,45.3926,13.9564,202.7682,157.2838,0,U,66295,999,3744,.82702E-3,.22785E-3,0
LEMUR-2-DEANANDMAEVE,2025-276N,2026-07-07T04:44:41.017344,15.19993148,.0004155,97.4199,261.3438,292.2862,67.7932,0,U,66678,999,3345,.21623E-3,.4589E-4,0
LEMUR-2-STAS-GORBUK,2025-276W,2026-07-07T03:37:44.601024,15.19603156,.0003485,97.4234,261.3507,289.3119,70.7738,0,U,66686,999,3344,.21123E-3,.443E-4,0
LEMUR-2-TEODOR,2025-276DG,2026-07-07T10:36:24.727104,15.21281439,.0002348,97.4139,261.8986,96.3146,263.8357,0,U,66768,999,3352,.1701E-3,.3734E-4,0
LEMUR-2-LAILA,2025-276DQ,2026-07-07T03:35:45.991104,15.21504624,.0002881,97.4163,261.7444,106.6204,253.5349,0,U,66776,999,3348,.21076E-3,.4674E-4,0
LEMUR-2-CELIJO-SB-PK,2025-276DW,2026-07-07T10:45:11.124288,15.00231883,.0007402,97.5200,258.5581,83.3763,276.8303,0,U,66781,999,2566,.33756E-3,.4168E-4,0
LEMUR-2-FINNIAN,2025-276DX,2026-07-07T03:40:46.055712,15.00553278,.0008124,97.5346,258.5193,28.2723,331.8940,0,U,66782,999,2299,.21743E-3,.2687E-4,0
